{
  "type": "FeatureCollection",
  "features": [
    {
      "type": "Feature",
      "properties": {
        "norad_id": 35618,
        "name": "IRIDIUM 33 DEB",
        "group": "iridium-33-debris",
        "lat": -51.08398809019181,
        "lon": 172.47923581522903,
        "alt_km": 731.0915277573104,
        "timestamp": "2025-12-25T11:37:44.824549+00:00",
        "meta_object_name": "IRIDIUM 33 DEB",
        "meta_object_id": "1997-051QQ",
        "meta_epoch": "2025-12-21T17:16:24.492288",
        "meta_mean_motion": 14.52331103,
        "meta_eccentricity": 0.00284149,
        "meta_inclination": 86.341,
        "meta_ra_of_asc_node": 349.5786,
        "meta_arg_of_pericenter": 351.4344,
        "meta_mean_anomaly": 8.6373,
        "meta_ephemeris_type": 0,
        "meta_classification_type": "U",
        "meta_norad_cat_id": 35618,
        "meta_element_set_no": 999,
        "meta_rev_at_epoch": 65524,
        "meta_bstar": 0.00039049847,
        "meta_mean_motion_dot": 1.617e-05,
        "meta_mean_motion_ddot": 0,
        "tle_line1": "1 35618U 97051QQ  25355.71972792  .00001617  00000+0  39050-3 0  9993",
        "tle_line2": "2 35618  86.3410 349.5786 0028414 351.4344   8.6373 14.52331103655244"
      },
      "geometry": {
        "type": "Point",
        "coordinates": [
          172.47923581522903,
          -51.08398809019181
        ]
      }
    },
    {
      "type": "Feature",
      "properties": {
        "norad_id": 35620,
        "name": "IRIDIUM 33 DEB",
        "group": "iridium-33-debris",
        "lat": -68.93652008242661,
        "lon": -157.35913346406204,
        "alt_km": 742.98415266969,
        "timestamp": "2025-12-25T11:37:44.824559+00:00",
        "meta_object_name": "IRIDIUM 33 DEB",
        "meta_object_id": "1997-051QS",
        "meta_epoch": "2025-12-24T07:34:12.963648",
        "meta_mean_motion": 14.38396346,
        "meta_eccentricity": 0.01383994,
        "meta_inclination": 86.3888,
        "meta_ra_of_asc_node": 212.5717,
        "meta_arg_of_pericenter": 220.3755,
        "meta_mean_anomaly": 138.7108,
        "meta_ephemeris_type": 0,
        "meta_classification_type": "U",
        "meta_norad_cat_id": 35620,
        "meta_element_set_no": 999,
        "meta_rev_at_epoch": 60132,
        "meta_bstar": 0.0050036177,
        "meta_mean_motion_dot": 0.00017094,
        "meta_mean_motion_ddot": 0,
        "tle_line1": "1 35620U 97051QS  25358.31542782  .00017094  00000+0  50036-2 0  9999",
        "tle_line2": "2 35620  86.3888 212.5717 0138399 220.3755 138.7108 14.38396346601328"
      },
      "geometry": {
        "type": "Point",
        "coordinates": [
          -157.35913346406204,
          -68.93652008242661
        ]
      }
    },
    {
      "type": "Feature",
      "properties": {
        "norad_id": 35622,
        "name": "IRIDIUM 33 DEB",
        "group": "iridium-33-debris",
        "lat": -30.41565230781562,
        "lon": 79.55343964385587,
        "alt_km": 553.535521048454,
        "timestamp": "2025-12-25T11:37:44.824570+00:00",
        "meta_object_name": "IRIDIUM 33 DEB",
        "meta_object_id": "1997-051QU",
        "meta_epoch": "2025-12-23T17:21:42.229152",
        "meta_mean_motion": 15.05849301,
        "meta_eccentricity": 0.0003572,
        "meta_inclination": 86.199,
        "meta_ra_of_asc_node": 258.1866,
        "meta_arg_of_pericenter": 286.0081,
        "meta_mean_anomaly": 102.9668,
        "meta_ephemeris_type": 0,
        "meta_classification_type": "U",
        "meta_norad_cat_id": 35622,
        "meta_element_set_no": 999,
        "meta_rev_at_epoch": 87525,
        "meta_bstar": 0.0038142437,
        "meta_mean_motion_dot": 0.00055737,
        "meta_mean_motion_ddot": 0,
        "tle_line1": "1 35622U 97051QU  25357.72340543  .00055737  00000+0  38142-2 0  9996",
        "tle_line2": "2 35622  86.1990 258.1866 0003572 286.0081 102.9668 15.05849301875256"
      },
      "geometry": {
        "type": "Point",
        "coordinates": [
          79.55343964385587,
          -30.41565230781562
        ]
      }
    },
    {
      "type": "Feature",
      "properties": {
        "norad_id": 35628,
        "name": "IRIDIUM 33 DEB",
        "group": "iridium-33-debris",
        "lat": 67.83212325785185,
        "lon": 174.39329656558866,
        "alt_km": 668.2941793037162,
        "timestamp": "2025-12-25T11:37:44.824580+00:00",
        "meta_object_name": "IRIDIUM 33 DEB",
        "meta_object_id": "1997-051RA",
        "meta_epoch": "2025-12-24T07:18:18.749088",
        "meta_mean_motion": 14.67742209,
        "meta_eccentricity": 0.00093407,
        "meta_inclination": 86.3568,
        "meta_ra_of_asc_node": 3.9163,
        "meta_arg_of_pericenter": 298.0786,
        "meta_mean_anomaly": 61.9483,
        "meta_ephemeris_type": 0,
        "meta_classification_type": "U",
        "meta_norad_cat_id": 35628,
        "meta_element_set_no": 999,
        "meta_rev_at_epoch": 86616,
        "meta_bstar": 0.0014718585,
        "meta_mean_motion_dot": 8.414e-05,
        "meta_mean_motion_ddot": 0,
        "tle_line1": "1 35628U 97051RA  25358.30438367  .00008414  00000+0  14719-2 0  9993",
        "tle_line2": "2 35628  86.3568   3.9163 0009340 298.0786  61.9483 14.67742209866160"
      },
      "geometry": {
        "type": "Point",
        "coordinates": [
          174.39329656558866,
          67.83212325785185
        ]
      }
    },
    {
      "type": "Feature",
      "properties": {
        "norad_id": 35631,
        "name": "IRIDIUM 33 DEB",
        "group": "iridium-33-debris",
        "lat": 23.638018814620686,
        "lon": -166.10694107814044,
        "alt_km": 730.6188790442811,
        "timestamp": "2025-12-25T11:37:44.824591+00:00",
        "meta_object_name": "IRIDIUM 33 DEB",
        "meta_object_id": "1997-051RD",
        "meta_epoch": "2025-12-25T01:14:45.811104",
        "meta_mean_motion": 14.47344148,
        "meta_eccentricity": 0.0019247,
        "meta_inclination": 86.3663,
        "meta_ra_of_asc_node": 15.6731,
        "meta_arg_of_pericenter": 81.4254,
        "meta_mean_anomaly": 341.8279,
        "meta_ephemeris_type": 0,
        "meta_classification_type": "U",
        "meta_norad_cat_id": 35631,
        "meta_element_set_no": 999,
        "meta_rev_at_epoch": 87375,
        "meta_bstar": 0.00038061,
        "meta_mean_motion_dot": 1.417e-05,
        "meta_mean_motion_ddot": 0,
        "tle_line1": "1 35631U 97051RD  25359.05191911  .00001417  00000+0  38061-3 0  9994",
        "tle_line2": "2 35631  86.3663  15.6731 0019247  81.4254 341.8279 14.47344148873756"
      },
      "geometry": {
        "type": "Point",
        "coordinates": [
          -166.10694107814044,
          23.638018814620686
        ]
      }
    },
    {
      "type": "Feature",
      "properties": {
        "norad_id": 35680,
        "name": "IRIDIUM 33 DEB",
        "group": "iridium-33-debris",
        "lat": 2.9240507540350458,
        "lon": 16.077391829839254,
        "alt_km": 885.893317614833,
        "timestamp": "2025-12-25T11:37:44.824601+00:00",
        "meta_object_name": "IRIDIUM 33 DEB",
        "meta_object_id": "1997-051RJ",
        "meta_epoch": "2025-12-24T19:34:50.470752",
        "meta_mean_motion": 14.21105868,
        "meta_eccentricity": 0.01507166,
        "meta_inclination": 86.1019,
        "meta_ra_of_asc_node": 16.1739,
        "meta_arg_of_pericenter": 239.8355,
        "meta_mean_anomaly": 302.9332,
        "meta_ephemeris_type": 0,
        "meta_classification_type": "U",
        "meta_norad_cat_id": 35680,
        "meta_element_set_no": 999,
        "meta_rev_at_epoch": 60872,
        "meta_bstar": 0.0033787501,
        "meta_mean_motion_dot": 8.251e-05,
        "meta_mean_motion_ddot": 0,
        "tle_line1": "1 35680U 97051RJ  25358.81586193  .00008251  00000+0  33788-2 0  9994",
        "tle_line2": "2 35680  86.1019  16.1739 0150716 239.8355 302.9332 14.21105868608722"
      },
      "geometry": {
        "type": "Point",
        "coordinates": [
          16.077391829839254,
          2.9240507540350458
        ]
      }
    },
    {
      "type": "Feature",
      "properties": {
        "norad_id": 35744,
        "name": "IRIDIUM 33 DEB",
        "group": "iridium-33-debris",
        "lat": 13.92541409133074,
        "lon": 138.76476822953862,
        "alt_km": 643.8416308042415,
        "timestamp": "2025-12-25T11:37:44.824611+00:00",
        "meta_object_name": "IRIDIUM 33 DEB",
        "meta_object_id": "1997-051RX",
        "meta_epoch": "2025-12-24T15:17:19.932000",
        "meta_mean_motion": 14.71145759,
        "meta_eccentricity": 0.00219113,
        "meta_inclination": 86.3301,
        "meta_ra_of_asc_node": 320.0594,
        "meta_arg_of_pericenter": 150.6894,
        "meta_mean_anomaly": 209.5557,
        "meta_ephemeris_type": 0,
        "meta_classification_type": "U",
        "meta_norad_cat_id": 35744,
        "meta_element_set_no": 999,
        "meta_rev_at_epoch": 87506,
        "meta_bstar": 0.0011850025,
        "meta_mean_motion_dot": 7.344e-05,
        "meta_mean_motion_ddot": 0,
        "tle_line1": "1 35744U 97051RX  25358.63703625  .00007344  00000+0  11850-2 0  9994",
        "tle_line2": "2 35744  86.3301 320.0594 0021911 150.6894 209.5557 14.71145759875069"
      },
      "geometry": {
        "type": "Point",
        "coordinates": [
          138.76476822953862,
          13.92541409133074
        ]
      }
    }
  ]
}